ONEWEB-0613             
1 56071U 23043AB  23242.88146394  .00000044  00000+0  83637-4 0  9995
2 56071  87.9014 102.5683 0001962  93.6320 266.5034 13.15540679 22153
ONEWEB-0630             
1 56072U 23043AC  23242.72513774  .00000412  00000+0  10595-2 0  9999
2 56072  87.9074 102.5772 0002259  88.4705 271.6684 13.15549182 22121
ONEWEB-0632             
1 56073U 23043AD  23242.87301878  .00001316  00000+0  34605-2 0  9998
2 56073  87.8969 102.5867 0001493 109.3392 250.7900 13.15537151 22147
ONEWEB-0633             
1 56074U 23043AE  23242.86877967  .00000814  00000+0  21278-2 0  9999
2 56074  87.8961 102.5862 0002444  91.8626 268.2784 13.15544678 22121
ONEWEB-0634             
1 56075U 23043AF  23242.84978301  .00000045  00000+0  85784-4 0  9992
2 56075  87.8960 102.5831 0002319  76.4653 283.6736 13.15549483 22113
ONEWEB-0635             
1 56076U 23043AG  23242.84341408 -.00000859  00000+0 -23164-2 0  9992
2 56076  87.8943 102.6656 0001564 100.6758 259.4548 13.15560606 22143
ONEWEB-0636             
1 56077U 23043AH  23242.68286770  .00000172  00000+0  42353-3 0  9993
2 56077  87.8952 102.6584 0001324  97.7886 262.3394 13.15545569 22105
ONEWEB-0637             
1 56078U 23043AJ  23242.91667824  .00012328  00000+0  32666-1 0  9993
2 56078  87.8918 102.5736 0001295  86.9394 320.0492 13.15555723  5247
